ONEWEB-0589             
1 54655U 22166P   25347.28669048  .00000074  00000+0  14882-3 0  9992
2 54655  87.9217 281.0688 0001921 104.1371 255.9977 13.21826976146981
ONEWEB-0590             
1 54656U 22166Q   25347.31123127  .00000143  00000+0  31363-3 0  9990
2 54656  87.9224 281.0408 0001358  77.7795 282.3492 13.21825428146975
ONEWEB-0591             
1 54657U 22166R   25347.24718910  .00000089  00000+0  18445-3 0  9998
2 54657  87.9222 281.0770 0001722  79.5294 280.6034 13.21824810146994
ONEWEB-0592             
1 54658U 22166S   25347.25048432  .00000074  00000+0  14710-3 0  9990
2 54658  87.9226 281.0396 0001744  77.0672 283.0657 13.21825739146876
ONEWEB-0593             
1 54659U 22166T   25347.27352268  .00000106  00000+0  22457-3 0  9991
2 54659  87.9219 281.0616 0001894  78.7471 281.3876 13.21827009146983
ONEWEB-0594             
1 54660U 22166U   25347.29326839 -.00000014  00000+0 -64279-4 0  9999
2 54660  87.9219 281.0756 0001837  76.0251 284.1088 13.21825086147007
ONEWEB-0595             
1 54661U 22166V   25347.27022337  .00000058  00000+0  10856-3 0  9991
2 54661  87.9217 281.0533 0001681  71.1622 288.9694 13.21824442146979
ONEWEB-0596             
1 54662U 22166W   25347.31959438  .00000125  00000+0  27001-3 0  9993
2 54662  87.9219 281.0602 0001708  76.6511 283.4813 13.21824031146984
ONEWEB-0597             
1 54663U 22166X   25347.30150079  .00000091  00000+0  18951-3 0  9993
2 54663  87.9222 281.0684 0001804  80.6938 279.4400 13.21825164146989
ONEWEB-0600             
1 54664U 22166Y   25347.28339277  .00000062  00000+0  11881-3 0  9993
2 54664  87.9219 281.0630 0001882  78.3994 281.7351 13.21825367146952
ONEWEB-0601             
1 54665U 22166Z   25347.27516527  .00000051  00000+0  91403-4 0  9995
2 54665  87.9217 281.0828 0001821  87.0766 273.0577 13.21825589147149
ONEWEB-0602             
1 54666U 22166AA  25347.31548627  .00000075  00000+0  14927-3 0  9998
2 54666  87.9225 281.0786 0002177  78.2019 281.9359 13.21826898146992
ONEWEB-0603             
1 54667U 22166AB  25347.32123963  .00000219  00000+0  49776-3 0  9992
2 54667  87.9228 281.0165 0001835  80.2547 279.8794 13.21824468146929
ONEWEB-0604             
1 54668U 22166AC  25347.30971507  .00000113  00000+0  24182-3 0  9993
2 54668  87.9224 281.0386 0001828  75.0331 285.1005 13.21823330146883
ONEWEB-0605             
1 54669U 22166AD  25347.30314523  .00000118  00000+0  25414-3 0  9997
2 54669  87.9218 281.0677 0001615  97.6981 262.4336 13.21825128146955
ONEWEB-0606             
1 54670U 22166AE  25347.24884132  .00000104  00000+0  22032-3 0  9998
2 54670  87.9222 281.0898 0001685  70.9916 289.1400 13.21826317147002
ONEWEB-0607             
1 54671U 22166AF  25347.29162402  .00000020  00000+0  17576-4 0  9998
2 54671  87.9218 281.0450 0001895  81.5674 278.5675 13.21825949146986
ONEWEB-0608             
1 54672U 22166AG  25347.29819973  .00000161  00000+0  35792-3 0  9996
2 54672  87.9226 281.0314 0001805  95.1473 264.9867 13.21824937146993
ONEWEB-0610             
1 54673U 22166AH  25347.27845201  .00000022  00000+0  22733-4 0  9996
2 54673  87.9215 281.0685 0001897  97.3653 262.7697 13.21824780146890
ONEWEB-0611             
1 54674U 22166AJ  25347.27187505  .00000043  00000+0  72376-4 0  9994
2 54674  87.9218 281.0653 0001831  69.4702 290.6628 13.21827258146888
ONEWEB-0612             
1 54675U 22166AK  25347.28503683  .00000076  00000+0  15269-3 0  9998
2 54675  87.9217 281.0419 0001816  81.2563 278.8777 13.21825619146879
ONEWEB-0615             
1 54676U 22166AL  25347.26529623  .00000057  00000+0  10672-3 0  9991
2 54676  87.9220 281.0729 0001785  77.3437 282.7897 13.21826835146888
ONEWEB-0655             
1 54677U 22166AM  25347.31631595  .00000147  00000+0  32350-3 0  9997
2 54677  87.9221 281.0665 0002064  79.1484 280.9883 13.21825904146883
ONEWEB-0659             
1 54678U 22166AN  25347.25706850  .00000046  00000+0  81017-4 0  9991
2 54678  87.9218 281.0784 0001716  73.1429 286.9893 13.21826441146961
ONEWEB-0685             
1 54679U 22166AP  25347.25753372  .00000067  00000+0  13183-3 0  9994
2 54679  87.9219 281.0744 0001764  88.1557 271.9779 13.21834942146850
ONEWEB-0712             
1 54680U 22166AQ  25347.24744962  .00000050  00000+0  96013-4 0  9996
2 54680  87.9048 265.7949 0002288  74.2471 285.8913 13.16595544147593
ONEWEB-0714             
1 54681U 22166AR  25347.26364295  .00000067  00000+0  13010-3 0  9999
2 54681  87.9218 281.0674 0001954  80.9861 279.1494 13.21824174146976
ONEWEB-0532             
1 55140U 23004A   25347.21753938  .00000060  00000+0  12024-3 0  9990
2 55140  87.9120  42.8377 0001544 113.4316 246.6978 13.17647905143090
ONEWEB-0533             
1 55141U 23004B   25347.13379161 -.00000141  00000+0 -42660-3 0  9995
2 55141  87.8945  27.6234 0001919 101.2867 258.8477 13.12444989143653
ONEWEB-0541             
1 55142U 23004C   25347.17075313 -.00000374  00000+0 -10923-2 0  9996
2 55142  87.8869  58.0906 0001599 103.4647 256.6659 13.11419210141561
ONEWEB-0543             
1 55143U 23004D   25347.11464817  .00000101  00000+0  22420-3 0  9994
2 55143  87.9165  12.4505 0002048  90.3920 269.7447 13.18686007145177
ONEWEB-0544             
1 55144U 23004E   25347.33567174 -.00000105  00000+0 -29897-3 0  9990
2 55144  87.9168  12.3972 0001699  85.8728 274.2598 13.18684080145205
ONEWEB-0560             
1 55145U 23004F   25347.32908326  .00000021  00000+0  21038-4 0  9993
2 55145  87.9175  12.3853 0001792  86.0932 274.0405 13.18686022145210
ONEWEB-0565             
1 55146U 23004G   25347.32248259  .00000077  00000+0  16345-3 0  9991
2 55146  87.9164  12.4326 0001337  84.1945 275.9340 13.18686798145200
ONEWEB-0567             
1 55147U 23004H   25347.31588522 -.00000001  00000+0 -35502-4 0  9997
2 55147  87.9171  12.4007 0001519  81.8170 278.3134 13.18686503145203
ONEWEB-0569             
1 55148U 23004J   25347.28714551 -.00000305  00000+0 -86887-3 0  9995
2 55148  87.8989 357.1565 0001881  61.1293 299.0025 13.13470760145779
ONEWEB-0570             
1 55149U 23004K   25347.30597239 -.00000026  00000+0 -99444-4 0  9995
2 55149  87.9172  12.4025 0001359 105.6129 254.5153 13.18684212145197
ONEWEB-0571             
1 55150U 23004L   25347.14762105  .00000054  00000+0  10391-3 0  9997
2 55150  87.9169  12.4335 0001229  49.9823 310.1417 13.18684117145181
ONEWEB-0572             
1 55151U 23004M   25347.17197734 -.00000056  00000+0 -17652-3 0  9992
2 55151  87.9119  42.8563 0001579  97.6729 262.4582 13.17648194142981
ONEWEB-0573             
1 55152U 23004N   25347.06513970  .00000123  00000+0  28003-3 0  9990
2 55152  87.9162  12.4551 0000963  86.8493 273.2750 13.18684555145166
ONEWEB-0588             
1 55153U 23004P   25347.13444191  .00000048  00000+0  88693-4 0  9995
2 55153  87.9174  12.4363 0001326 100.2486 259.8795 13.18685775145173
ONEWEB-0598             
1 55154U 23004Q   25347.22500166 -.00000435  00000+0 -12634-2 0  9993
2 55154  87.8856  58.1071 0001468  81.9697 278.1598 13.11418801141526
ONEWEB-0599             
1 55155U 23004R   25347.20909907 -.00000068  00000+0 -20752-3 0  9991
2 55155  87.9110  42.8501 0001791  93.3688 266.7648 13.17647912142999
ONEWEB-0614             
1 55156U 23004S   25347.21992589 -.00000318  00000+0 -93168-3 0  9990
2 55156  87.8853  58.1173 0001663 115.1058 245.0243 13.11417747141467
ONEWEB-0616             
1 55157U 23004T   25347.17534567 -.00000177  00000+0 -48831-3 0  9994
2 55157  87.9121  42.8489 0002657  87.9088 272.2348 13.17648891143204
ONEWEB-0617             
1 55158U 23004U   25347.20807457  .00000235  00000+0  62820-3 0  9997
2 55158  87.8852  58.0987 0001432 111.6201 248.5079 13.11413687141481
ONEWEB-0618             
1 55159U 23004V   25347.22564951  .00015523  00000+0  93307-3 0  9999
2 55159  86.9077 253.0355 0010248 263.9379  96.0692 15.10730422154165
ONEWEB-0619             
1 55160U 23004W   25347.20741204  .00000009  00000+0 -10609-4 0  9996
2 55160  87.9118  42.8162 0002141 108.8399 251.2965 13.17649948143103
ONEWEB-0620             
1 55161U 23004X   25347.20299845  .00000402  00000+0  10972-2 0  9993
2 55161  87.8855  58.1194 0001396 100.7847 259.3439 13.11418165141456
ONEWEB-0621             
1 55162U 23004Y   25347.23009660 -.00000513  00000+0 -14845-2 0  9999
2 55162  87.8866  58.0850 0001802 110.5811 249.5510 13.11415977141436
ONEWEB-0622             
1 55163U 23004Z   25347.23519320 -.00000460  00000+0 -13335-2 0  9993
2 55163  87.8858  58.0932 0001335 130.1715 229.9530 13.11418384141429
ONEWEB-0623             
1 55164U 23004AA  25347.20234116  .00000046  00000+0  86044-4 0  9995
2 55164  87.9110  42.8667 0001851 125.2230 234.9075 13.17647279143096
ONEWEB-0624             
1 55165U 23004AB  25347.16824707  .00000109  00000+0  26441-3 0  9996
2 55165  87.8936  27.5746 0001688 108.3405 251.7907 13.12922716143665
ONEWEB-0625             
1 55166U 23004AC  25347.19221943  .00000055  00000+0  10861-3 0  9992
2 55166  87.9109  42.8632 0001944  97.6761 262.4592 13.17648317143085
ONEWEB-0626             
1 55167U 23004AD  25347.18210119  .00000031  00000+0  46280-4 0  9994
2 55167  87.9113  42.8654 0001470  85.6512 274.4788 13.17650224143080
ONEWEB-0627             
1 55168U 23004AE  25347.24622343  .00000107  00000+0  24272-3 0  9998
2 55168  87.9112  42.8531 0001661 119.5293 240.6004 13.17648167143099
ONEWEB-0628             
1 55169U 23004AF  25347.15681059 -.00007900  00000+0 -22042-1 0  9999
2 55169  87.8945  27.6042 0001686 125.5419 234.5867 13.12358732143635
ONEWEB-0629             
1 55170U 23004AG  25347.22175190  .00000071  00000+0  15042-3 0  9997
2 55170  87.9110  42.8552 0002027 105.5790 254.5565 13.17649045143099
ONEWEB-0631             
1 55171U 23004AH  25347.12783385  .00000024  00000+0  27038-4 0  9995
2 55171  87.9184  12.3852 0001238  87.6288 272.4986 13.18686426145151
